{
  "type": "FeatureCollection",
  "features": [
    {
      "type": "Feature",
      "properties": {
        "norad_id": 31258,
        "name": "FENGYUN 1C DEB",
        "group": "fengyun-1c-debris",
        "lat": -11.283531379227929,
        "lon": -47.25675963886154,
        "alt_km": 534.7560140678106,
        "timestamp": "2025-12-11T18:59:46.354951+00:00",
        "meta_object_name": "FENGYUN 1C DEB",
        "meta_object_id": "1999-025BMQ",
        "meta_epoch": "2025-12-10T08:55:48.436032",
        "meta_mean_motion": 15.11516098,
        "meta_eccentricity": 0.00045646,
        "meta_inclination": 98.8487,
        "meta_ra_of_asc_node": 132.8823,
        "meta_arg_of_pericenter": 302.999,
        "meta_mean_anomaly": 87.5862,
        "meta_ephemeris_type": 0,
        "meta_classification_type": "U",
        "meta_norad_cat_id": 31258,
        "meta_element_set_no": 999,
        "meta_rev_at_epoch": 97075,
        "meta_bstar": 0.014236545,
        "meta_mean_motion_dot": 0.00249542,
        "meta_mean_motion_ddot": 0,
        "tle_line1": "1 31258U 99025BMQ 25344.37208838  .00249542  00000+0  14237-1 0  9994",
        "tle_line2": "2 31258  98.8487 132.8823 0004564 302.9990  87.5862 15.11516098970754"
      },
      "geometry": {
        "type": "Point",
        "coordinates": [
          -47.25675963886154,
          -11.283531379227929
        ]
      }
    },
    {
      "type": "Feature",
      "properties": {
        "norad_id": 31259,
        "name": "FENGYUN 1C DEB",
        "group": "fengyun-1c-debris",
        "lat": 67.09886245101863,
        "lon": 42.919780303604796,
        "alt_km": 865.7682867020685,
        "timestamp": "2025-12-11T18:59:46.354961+00:00",
        "meta_object_name": "FENGYUN 1C DEB",
        "meta_object_id": "1999-025BMR",
        "meta_epoch": "2025-12-10T20:55:32.869344",
        "meta_mean_motion": 14.15005449,
        "meta_eccentricity": 0.0065781,
        "meta_inclination": 99.0092,
        "meta_ra_of_asc_node": 64.0502,
        "meta_arg_of_pericenter": 201.089,
        "meta_mean_anomaly": 226.5155,
        "meta_ephemeris_type": 0,
        "meta_classification_type": "U",
        "meta_norad_cat_id": 31259,
        "meta_element_set_no": 999,
        "meta_rev_at_epoch": 95543,
        "meta_bstar": 0.0027446,
        "meta_mean_motion_dot": 5.383e-05,
        "meta_mean_motion_ddot": 0,
        "tle_line1": "1 31259U 99025BMR 25344.87190821  .00005383  00000+0  27446-2 0  9992",
        "tle_line2": "2 31259  99.0092  64.0502 0065781 201.0890 226.5155 14.15005449955430"
      },
      "geometry": {
        "type": "Point",
        "coordinates": [
          42.919780303604796,
          67.09886245101863
        ]
      }
    },
    {
      "type": "Feature",
      "properties": {
        "norad_id": 31260,
        "name": "FENGYUN 1C DEB",
        "group": "fengyun-1c-debris",
        "lat": 77.0841180874501,
        "lon": -160.75082073640004,
        "alt_km": 790.7266540666542,
        "timestamp": "2025-12-11T18:59:46.354971+00:00",
        "meta_object_name": "FENGYUN 1C DEB",
        "meta_object_id": "1999-025BMS",
        "meta_epoch": "2025-12-10T16:00:46.162080",
        "meta_mean_motion": 14.36408342,
        "meta_eccentricity": 0.0047191,
        "meta_inclination": 98.9558,
        "meta_ra_of_asc_node": 241.526,
        "meta_arg_of_pericenter": 298.7563,
        "meta_mean_anomaly": 91.017,
        "meta_ephemeris_type": 0,
        "meta_classification_type": "U",
        "meta_norad_cat_id": 31260,
        "meta_element_set_no": 999,
        "meta_rev_at_epoch": 97164,
        "meta_bstar": 0.0017132,
        "meta_mean_motion_dot": 5.038e-05,
        "meta_mean_motion_ddot": 0,
        "tle_line1": "1 31260U 99025BMS 25344.66720095  .00005038  00000+0  17132-2 0  9991",
        "tle_line2": "2 31260  98.9558 241.5260 0047191 298.7563  91.0170 14.36408342971640"
      },
      "geometry": {
        "type": "Point",
        "coordinates": [
          -160.75082073640004,
          77.0841180874501
        ]
      }
    },
    {
      "type": "Feature",
      "properties": {
        "norad_id": 31261,
        "name": "FENGYUN 1C DEB",
        "group": "fengyun-1c-debris",
        "lat": 78.7207936158219,
        "lon": -113.60372290611048,
        "alt_km": 782.5390450407313,
        "timestamp": "2025-12-11T18:59:46.354980+00:00",
        "meta_object_name": "FENGYUN 1C DEB",
        "meta_object_id": "1999-025BMT",
        "meta_epoch": "2025-12-10T07:35:22.126848",
        "meta_mean_motion": 14.40058842,
        "meta_eccentricity": 0.00499763,
        "meta_inclination": 99.0156,
        "meta_ra_of_asc_node": 297.5987,
        "meta_arg_of_pericenter": 240.2518,
        "meta_mean_anomaly": 119.3692,
        "meta_ephemeris_type": 0,
        "meta_classification_type": "U",
        "meta_norad_cat_id": 31261,
        "meta_element_set_no": 999,
        "meta_rev_at_epoch": 97315,
        "meta_bstar": 0.0016518644,
        "meta_mean_motion_dot": 5.241e-05,
        "meta_mean_motion_ddot": 0,
        "tle_line1": "1 31261U 99025BMT 25344.31622832  .00005241  00000+0  16519-2 0  9998",
        "tle_line2": "2 31261  99.0156 297.5987 0049976 240.2518 119.3692 14.40058842973151"
      },
      "geometry": {
        "type": "Point",
        "coordinates": [
          -113.60372290611048,
          78.7207936158219
        ]
      }
    },
    {
      "type": "Feature",
      "properties": {
        "norad_id": 31262,
        "name": "FENGYUN 1C DEB",
        "group": "fengyun-1c-debris",
        "lat": 2.5534687367693456,
        "lon": -110.35905728078359,
        "alt_km": 824.6037969253566,
        "timestamp": "2025-12-11T18:59:46.354994+00:00",
        "meta_object_name": "FENGYUN 1C DEB",
        "meta_object_id": "1999-025BMU",
        "meta_epoch": "2025-12-10T17:28:24.445344",
        "meta_mean_motion": 14.18162638,
        "meta_eccentricity": 0.00553543,
        "meta_inclination": 99.003,
        "meta_ra_of_asc_node": 68.1576,
        "meta_arg_of_pericenter": 103.7749,
        "meta_mean_anomaly": 46.5995,
        "meta_ephemeris_type": 0,
        "meta_classification_type": "U",
        "meta_norad_cat_id": 31262,
        "meta_element_set_no": 999,
        "meta_rev_at_epoch": 95680,
        "meta_bstar": 0.0026286567,
        "meta_mean_motion_dot": 5.44e-05,
        "meta_mean_motion_ddot": 0,
        "tle_line1": "1 31262U 99025BMU 25344.72806071  .00005440  00000+0  26287-2 0  9997",
        "tle_line2": "2 31262  99.0030  68.1576 0055354 103.7749  46.5995 14.18162638956809"
      },
      "geometry": {
        "type": "Point",
        "coordinates": [
          -110.35905728078359,
          2.5534687367693456
        ]
      }
    },
    {
      "type": "Feature",
      "properties": {
        "norad_id": 31263,
        "name": "FENGYUN 1C DEB",
        "group": "fengyun-1c-debris",
        "lat": 78.126681043314,
        "lon": 138.58741487189093,
        "alt_km": 394.45178060799117,
        "timestamp": "2025-12-11T18:59:46.355006+00:00",
        "meta_object_name": "FENGYUN 1C DEB",
        "meta_object_id": "1999-025BMV",
        "meta_epoch": "2025-12-10T05:20:59.404128",
        "meta_mean_motion": 15.46423657,
        "meta_eccentricity": 0.0022969,
        "meta_inclination": 98.9891,
        "meta_ra_of_asc_node": 267.7937,
        "meta_arg_of_pericenter": 120.0043,
        "meta_mean_anomaly": 240.3485,
        "meta_ephemeris_type": 0,
        "meta_classification_type": "U",
        "meta_norad_cat_id": 31263,
        "meta_element_set_no": 999,
        "meta_rev_at_epoch": 97127,
        "meta_bstar": 0.022467,
        "meta_mean_motion_dot": 0.01232313,
        "meta_mean_motion_ddot": 0,
        "tle_line1": "1 31263U 99025BMV 25344.22290977  .01232313  00000+0  22467-1 0  9992",
        "tle_line2": "2 31263  98.9891 267.7937 0022969 120.0043 240.3485 15.46423657971275"
      },
      "geometry": {
        "type": "Point",
        "coordinates": [
          138.58741487189093,
          78.126681043314
        ]
      }
    },
    {
      "type": "Feature",
      "properties": {
        "norad_id": 31264,
        "name": "FENGYUN 1C DEB",
        "group": "fengyun-1c-debris",
        "lat": 31.383480532012598,
        "lon": 68.36855403810135,
        "alt_km": 828.9380287198965,
        "timestamp": "2025-12-11T18:59:46.355019+00:00",
        "meta_object_name": "FENGYUN 1C DEB",
        "meta_object_id": "1999-025BMW",
        "meta_epoch": "2025-12-11T05:28:44.267232",
        "meta_mean_motion": 14.18584393,
        "meta_eccentricity": 0.00011465,
        "meta_inclination": 99.1143,
        "meta_ra_of_asc_node": 242.1704,
        "meta_arg_of_pericenter": 10.6711,
        "meta_mean_anomaly": 142.6875,
        "meta_ephemeris_type": 0,
        "meta_classification_type": "U",
        "meta_norad_cat_id": 31264,
        "meta_element_set_no": 999,
        "meta_rev_at_epoch": 96407,
        "meta_bstar": 0.00080776637,
        "meta_mean_motion_dot": 1.626e-05,
        "meta_mean_motion_ddot": 0,
        "tle_line1": "1 31264U 99025BMW 25345.22829013  .00001626  00000+0  80777-3 0  9993",
        "tle_line2": "2 31264  99.1143 242.1704 0001146  10.6711 142.6875 14.18584393964078"
      },
      "geometry": {
        "type": "Point",
        "coordinates": [
          68.36855403810135,
          31.383480532012598
        ]
      }
    }
  ]
}